0 FENGYUN 1C DEB
1 30407U 99025ADW 13281.74582084  .00083306  00000-0  22605-2 0  1328
2 30407 098.7182 191.2566 0115904 030.0026 027.9318 15.30713474364167
0 FENGYUN 1C DEB
1 30407U 99025ADW 13282.72592353  .00106385  00000-0  28618-2 0  1331
2 30407 098.7178 192.4072 0115323 026.6617 029.2502 15.30951554364319
0 FENGYUN 1C DEB
1 30407U 99025ADW 13284.24640716  .00107157  00000-0  28622-2 0  1341
2 30407 098.7178 194.1930 0114471 021.5021 130.0377 15.31249368364547
0 FENGYUN 1C DEB
1 30407U 99025ADW 13285.79569258  .00099394  00000-0  26417-2 0  1357
2 30407 098.7184 196.0140 0113511 016.2352 031.1787 15.31524749364781
0 FENGYUN 1C DEB
1 30407U 99025ADW 13286.71137017  .00100211  00000-0  26542-2 0  1365
2 30407 098.7191 197.0907 0112911 013.1054 040.0390 15.31687476364921
0 FENGYUN 1C DEB
1 30407U 99025ADW 13287.69190753  .00124879  00000-0  32837-2 0  1370
2 30407 098.7187 198.2447 0112264 009.7785 047.1198 15.31885639365073
0 FENGYUN 1C DEB
1 30407U 99025ADW 13288.15891279  .00152518  00000-0  39873-2 0  1382
2 30407 098.7187 198.7940 0111779 008.1981 102.6530 15.32016401365146
0 FENGYUN 1C DEB
1 30407U 99025ADW 13288.73675012  .00131463  00000-0  34323-2 0  1393
2 30407 098.7188 199.4739 0111444 006.2019 049.7654 15.32159775365231
0 FENGYUN 1C DEB
1 30407U 99025ADW 13289.71708472  .00140275  00000-0  36402-2 0  1402
2 30407 098.7190 200.6274 0110766 002.8659 057.4996 15.32380271365389
0 FENGYUN 1C DEB
1 30407U 99025ADW 13290.55498547  .00116133  00000-0  30362-2 0  1411
2 30407 098.7186 201.6135 0110581 359.9997 000.1741 15.32600128365511
0 FENGYUN 1C DEB
1 30407U 99025ADW 13290.69753946  .00136524  00000-0  35258-2 0  1418
2 30407 098.7190 201.7815 0109998 359.5274 066.6713 15.32614668365538
0 FENGYUN 1C DEB
1 30407U 99025ADW 13291.47910009  .00133172  00000-0  34242-2 0  1429
2 30407 098.7186 202.7020 0109286 356.8520 059.2409 15.32828122365651
0 FENGYUN 1C DEB
1 30407U 99025ADW 13292.71891622  .00133400  00000-0  34065-2 0  1434
2 30407 098.7183 204.1627 0108293 352.5883 061.4887 15.33132388365848
0 FENGYUN 1C DEB
1 30407U 99025ADW 13293.82583731  .00136272  00000-0  34588-2 0  1447
2 30407 098.7183 205.4673 0107399 348.7691 051.4699 15.33392566366019
0 FENGYUN 1C DEB
1 30407U 99025ADW 13294.80558078  .00153987  00000-0  38797-2 0  1451
2 30407 098.7182 206.6223 0106632 345.3928 060.3347 15.33629331366165
0 FENGYUN 1C DEB
1 30407U 99025ADW 13295.20788951  .00137828  00000-0  34713-2 0  1462
2 30407 098.7179 207.0969 0106317 343.9885 121.6133 15.33724981366227
